[
    {
        "Altitude(m)": 617710.6290645753,
        "Argument of Periapsis(deg)": 0.0,
        "Eccentricity": 0.0,
        "Inclination(deg)": 60.0,
        "Latitude(deg)": -41.102631455695075,
        "Longitude(deg)": 114.96663141501648,
        "Mean Anomaly(deg)": -49.09089999999994,
        "RAAN(deg)": 245.0,
        "Satellite Name": "Test1 1097",
        "Satellite Number": 1097,
        "Semi-Major Axis(m)": 6980739.136638005,
        "Time(s)": 0
    },
    {
        "Altitude(m)": 617517.9275782162,
        "Argument of Periapsis(deg)": 0.00010418945913296404,
        "Eccentricity": 0.0,
        "Inclination(deg)": 60.0,
        "Latitude(deg)": -40.636838394442556,
        "Longitude(deg)": 115.46342478727136,
        "Mean Anomaly(deg)": -48.470793854538094,
        "RAAN(deg)": 244.99957995086027,
        "Satellite Name": "Test1 1097",
        "Satellite Number": 1097,
        "Semi-Major Axis(m)": 6980739.136638005,
        "Time(s)": 10
    },
    {
        "Altitude(m)": 617324.2489934376,
        "Argument of Periapsis(deg)": 0.0002083789182659281,
        "Eccentricity": 0.0,
        "Inclination(deg)": 60.0,
        "Latitude(deg)": -40.16852001410713,
        "Longitude(deg)": 115.95279031977542,
        "Mean Anomaly(deg)": -47.85068770907634,
        "RAAN(deg)": 244.9991599017205,
        "Satellite Name": "Test1 1097",
        "Satellite Number": 1097,
        "Semi-Major Axis(m)": 6980739.136638005,
        "Time(s)": 20
    },
    {
        "Altitude(m)": 617129.6672910271,
        "Argument of Periapsis(deg)": 0.00031256837739889213,
        "Eccentricity": 0.0,
        "Inclination(deg)": 60.0,
        "Latitude(deg)": -39.69774944639826,
        "Longitude(deg)": 116.43491246561045,
        "Mean Anomaly(deg)": -47.230581563614436,
        "RAAN(deg)": 244.9987398525808,
        "Satellite Name": "Test1 1097",
        "Satellite Number": 1097,
        "Semi-Major Axis(m)": 6980739.136638005,
        "Time(s)": 30
    },
    {
        "Altitude(m)": 616934.2567004882,
        "Argument of Periapsis(deg)": 0.0004167578365318562,
        "Eccentricity": 0.0,
        "Inclination(deg)": 60.0,
        "Latitude(deg)": -39.22459760036742,
        "Longitude(deg)": 116.90997269968423,
        "Mean Anomaly(deg)": -46.61047541815268,
        "RAAN(deg)": 244.99831980344103,
        "Satellite Name": "Test1 1097",
        "Satellite Number": 1097,
        "Semi-Major Axis(m)": 6980739.136638005,
        "Time(s)": 40
    },
    {
        "Altitude(m)": 616738.0916675854,
        "Argument of Periapsis(deg)": 0.0005209472956648203,
        "Eccentricity": 0.0,
        "Inclination(deg)": 60.0,
        "Latitude(deg)": -38.74913323480183,
        "Longitude(deg)": 117.37814849553689,
        "Mean Anomaly(deg)": -45.990369272690835,
        "RAAN(deg)": 244.9978997543013,
        "Satellite Name": "Test1 1097",
        "Satellite Number": 1097,
        "Semi-Major Axis(m)": 6980739.136638005,
        "Time(s)": 50
    },
    {
        "Altitude(m)": 616541.2468217511,
        "Argument of Periapsis(deg)": 0.0006251367547977843,
        "Eccentricity": 0.0,
        "Inclination(deg)": 60.0,
        "Latitude(deg)": -38.27142302913651,
        "Longitude(deg)": 117.83961382589888,
        "Mean Anomaly(deg)": -45.37026312722898,
        "RAAN(deg)": 244.99747970516154,
        "Satellite Name": "Test1 1097",
        "Satellite Number": 1097,
        "Semi-Major Axis(m)": 6980739.136638005,
        "Time(s)": 60
    },
    {
        "Altitude(m)": 616343.7969433991,
        "Argument of Periapsis(deg)": 0.0007293262139307483,
        "Eccentricity": 0.0,
        "Inclination(deg)": 60.0,
        "Latitude(deg)": -37.79153165281076,
        "Longitude(deg)": 118.2945396730053,
        "Mean Anomaly(deg)": -44.75015698176718,
        "RAAN(deg)": 244.99705965602183,
        "Satellite Name": "Test1 1097",
        "Satellite Number": 1097,
        "Semi-Major Axis(m)": 6980739.136638005,
        "Time(s)": 70
    },
    {
        "Altitude(m)": 616145.8169311523,
        "Argument of Periapsis(deg)": 0.0008335156730637124,
        "Eccentricity": 0.0,
        "Inclination(deg)": 60.0,
        "Latitude(deg)": -37.30952183301433,
        "Longitude(deg)": 118.74309303475303,
        "Mean Anomaly(deg)": -44.13005083630533,
        "RAAN(deg)": 244.99663960688207,
        "Satellite Name": "Test1 1097",
        "Satellite Number": 1097,
        "Semi-Major Axis(m)": 6980739.136638005,
        "Time(s)": 80
    },
    {
        "Altitude(m)": 615947.381768981,
        "Argument of Periapsis(deg)": 0.0009377051321966765,
        "Eccentricity": 0.0,
        "Inclination(deg)": 60.0,
        "Latitude(deg)": -36.825454420783274,
        "Longitude(deg)": 119.18543745148556,
        "Mean Anomaly(deg)": -43.50994469084347,
        "RAAN(deg)": 244.99621955774234,
        "Satellite Name": "Test1 1097",
        "Satellite Number": 1097,
        "Semi-Major Axis(m)": 6980739.136638005,
        "Time(s)": 90
    },
    {
        "Altitude(m)": 615748.5664932949,
        "Argument of Periapsis(deg)": 0.0010418945913296407,
        "Eccentricity": 0.0,
        "Inclination(deg)": 60.0,
        "Latitude(deg)": -36.33938845541402,
        "Longitude(deg)": 119.6217335396553,
        "Mean Anomaly(deg)": -42.88983854538162,
        "RAAN(deg)": 244.99579950860257,
        "Satellite Name": "Test1 1097",
        "Satellite Number": 1097,
        "Semi-Major Axis(m)": 6980739.136638005,
        "Time(s)": 100
    },
    {
        "Altitude(m)": 615549.446159982,
        "Argument of Periapsis(deg)": 0.0011460840504626045,
        "Eccentricity": 0.0,
        "Inclination(deg)": 60.0,
        "Latitude(deg)": -35.8513812271755,
        "Longitude(deg)": 120.0521380186835,
        "Mean Anomaly(deg)": -42.26973239991982,
        "RAAN(deg)": 244.99537945946287,
        "Satellite Name": "Test1 1097",
        "Satellite Number": 1097,
        "Semi-Major Axis(m)": 6980739.136638005,
        "Time(s)": 110
    },
    {
        "Altitude(m)": 615350.0958114332,
        "Argument of Periapsis(deg)": 0.0012502735095955685,
        "Eccentricity": 0.0,
        "Inclination(deg)": 60.0,
        "Latitude(deg)": -35.36148833831061,
        "Longitude(deg)": 120.4768042560218,
        "Mean Anomaly(deg)": -41.649626254457964,
        "RAAN(deg)": 244.9949594103231,
        "Satellite Name": "Test1 1097",
        "Satellite Number": 1097,
        "Semi-Major Axis(m)": 6980739.136638005,
        "Time(s)": 120
    },
    {
        "Altitude(m)": 615150.5904435269,
        "Argument of Periapsis(deg)": 0.0013544629687285324,
        "Eccentricity": 0.0,
        "Inclination(deg)": 60.0,
        "Latitude(deg)": -34.869763762324496,
        "Longitude(deg)": 120.89588281686895,
        "Mean Anomaly(deg)": -41.02952010899611,
        "RAAN(deg)": 244.99453936118337,
        "Satellite Name": "Test1 1097",
        "Satellite Number": 1097,
        "Semi-Major Axis(m)": 6980739.136638005,
        "Time(s)": 130
    },
    {
        "Altitude(m)": 614951.0049726323,
        "Argument of Periapsis(deg)": 0.0014586524278614966,
        "Eccentricity": 0.0,
        "Inclination(deg)": 60.0,
        "Latitude(deg)": -34.37625990156291,
        "Longitude(deg)": 121.30952050505455,
        "Mean Anomaly(deg)": -40.409413963534256,
        "RAAN(deg)": 244.9941193120436,
        "Satellite Name": "Test1 1097",
        "Satellite Number": 1097,
        "Semi-Major Axis(m)": 6980739.136638005,
        "Time(s)": 140
    },
    {
        "Altitude(m)": 614751.4142026219,
        "Argument of Periapsis(deg)": 0.0015628418869944607,
        "Eccentricity": 0.0,
        "Inclination(deg)": 60.0,
        "Latitude(deg)": -33.881027643093766,
        "Longitude(deg)": 121.71786092027097,
        "Mean Anomaly(deg)": -39.78930781807246,
        "RAAN(deg)": 244.9936992629039,
        "Satellite Name": "Test1 1097",
        "Satellite Number": 1097,
        "Semi-Major Axis(m)": 6980739.136638005,
        "Time(s)": 150
    },
    {
        "Altitude(m)": 614551.8927919249,
        "Argument of Periapsis(deg)": 0.0016670313461274247,
        "Eccentricity": 0.0,
        "Inclination(deg)": 60.0,
        "Latitude(deg)": -33.38411641290779,
        "Longitude(deg)": 122.12104501827328,
        "Mean Anomaly(deg)": -39.1692016726106,
        "RAAN(deg)": 244.99327921376414,
        "Satellite Name": "Test1 1097",
        "Satellite Number": 1097,
        "Semi-Major Axis(m)": 6980739.136638005,
        "Time(s)": 160
    },
    {
        "Altitude(m)": 614352.5152206144,
        "Argument of Periapsis(deg)": 0.0017712208052603888,
        "Eccentricity": 0.0,
        "Inclination(deg)": 60.0,
        "Latitude(deg)": -32.885574228458005,
        "Longitude(deg)": 122.51921016071154,
        "Mean Anomaly(deg)": -38.54909552714885,
        "RAAN(deg)": 244.9928591646244,
        "Satellite Name": "Test1 1097",
        "Satellite Number": 1097,
        "Semi-Major Axis(m)": 6980739.136638005,
        "Time(s)": 170
    },
    {
        "Altitude(m)": 614153.3557575636,
        "Argument of Periapsis(deg)": 0.001875410264393353,
        "Eccentricity": 0.0,
        "Inclination(deg)": 60.0,
        "Latitude(deg)": -32.38544774956448,
        "Longitude(deg)": 122.91249067992021,
        "Mean Anomaly(deg)": -37.928989381687,
        "RAAN(deg)": 244.99243911548464,
        "Satellite Name": "Test1 1097",
        "Satellite Number": 1097,
        "Semi-Major Axis(m)": 6980739.136638005,
        "Time(s)": 180
    },
    {
        "Altitude(m)": 613954.4884276809,
        "Argument of Periapsis(deg)": 0.0019795997235263173,
        "Eccentricity": 0.0,
        "Inclination(deg)": 60.0,
        "Latitude(deg)": -31.883782327713153,
        "Longitude(deg)": 123.30101844541417,
        "Mean Anomaly(deg)": -37.30888323622519,
        "RAAN(deg)": 244.99201906634494,
        "Satellite Name": "Test1 1097",
        "Satellite Number": 1097,
        "Semi-Major Axis(m)": 6980739.136638005,
        "Time(s)": 190
    }
]